#cV2023  1  8  9 59  0.00000000      17   SIM WGS84 FIT  SPT
## 2244  35940.00000000   900.00000000 59952 0.4159722222222
+    4   J02J03J04J07  0  0  0  0  0  0  0  0  0  0  0  0  0
+          0  0  0  0  0  0  0  0  0  0  0  0  0  0  0  0  0
+          0  0  0  0  0  0  0  0  0  0  0  0  0  0  0  0  0
+          0  0  0  0  0  0  0  0  0  0  0  0  0  0  0  0  0
+          0  0  0  0  0  0  0  0  0  0  0  0  0  0  0  0  0
++         1  1  1  1  1  1  1  1  1  1  1  1  1  1  1  1  1
++         1  1  1  1  1  1  1  1  1  1  1  1  1  1  1  1  1
++         1  1  1  1  1  1  1  1  1  1  1  1  1  1  1  1  1
++         1  1  1  1  1  1  1  1  1  1  1  1  1  1  1  1  1
++         1  1  1  1  1  1  1  1  1  1  1  1  1  1  1  1  1
%c J  cc GPS ccc cccc cccc cccc cccc ccccc ccccc ccccc ccccc
%c cc cc ccc ccc cccc cccc cccc cccc ccccc ccccc ccccc ccccc
%f  0.3000000  0.000000000  0.00000000000  0.000000000000000
%f  0.0000000  0.000000000  0.00000000000  0.000000000000000
%i    0    0    0    0      0      0      0      0         0
%i    0    0    0    0      0      0      0      0         0
/*                                                          
/*                                                          
/*                                                          
/*                                                          
*  2023  1  8 13  0  0.00000000
PJ02 -29265.184083  30309.936149   2959.577463     -0.515120  1  1  1           
VJ02   6169.947148   4727.734616 -20305.164147     -0.000000  1  1  1           
PJ03 -24265.883098  24765.707954  29140.854619     -0.078697  1  1  1           
VJ03   -518.860853  -3727.532113   3245.042641      0.000000  1  1  1           
PJ04 -33040.323641  23774.779227  -5719.471549    117.930464  1  1  1           
VJ04  -1663.446088   5678.940204  17149.415902      0.000001  1  1  1           
PJ07 -25418.709224  33648.294742    -28.917178     -0.030268  1  1  1           
VJ07      3.589115      9.017082      5.653404      0.000000  1  1  1           
*  2023  1  8 13 15  0.00000000
PJ02 -28683.605786  30697.831855   1127.057671     -0.515222  1  1  1           
VJ02   6738.800543   3876.101814 -20403.086594     -0.000000  1  1  1           
PJ03 -24344.100901  24444.964798  29382.149647     -0.078697  1  1  1           
VJ03  -1212.185914  -3385.170554   2115.812326      0.000000  1  1  1           
PJ04 -33151.013143  24290.182315  -4163.982539    117.931794  1  1  1           
VJ04   -798.703473   5758.282769  17403.089440      0.000001  1  1  1           
PJ07 -25418.356202  33649.111128    -28.345839     -0.030268  1  1  1           
VJ07      4.250889      9.119427      7.038287      0.000000  1  1  1           
*  2023  1  8 13 30  0.00000000
PJ02 -28055.127697  31004.914559   -710.340417     -0.515324  1  1  1           
VJ02   7210.108754   2933.867250 -20413.094900     -0.000000  1  1  1           
PJ03 -24482.618930  24158.965340  29521.520579     -0.078697  1  1  1           
VJ03  -1856.951673  -2956.586240    980.573073      0.000000  1  1  1           
PJ04 -33184.712429  24808.403899  -2589.400594    117.933124  1  1  1           
VJ04     45.325521   5742.137893  17573.938754      0.000001  1  1  1           
PJ07 -25417.944969  33649.935284    -27.651234     -0.030268  1  1  1           
VJ07      4.882527      9.189964      8.391585      0.000000  1  1  1           
*  2023  1  8 13 45  0.00000000
PJ02 -27389.062497  31223.591224  -2544.580542     -0.515427  1  1  1           
VJ02   7572.261157   1913.798479 -20332.485508     -0.000000  1  1  1           
PJ03 -24676.563536  23915.142260  29558.564287     -0.078697  1  1  1           
VJ03  -2442.128884  -2449.278866   -157.616690      0.000000  1  1  1           
PJ04 -33143.846519  25321.025962  -1003.110316    117.934454  1  1  1           
VJ04    856.320084   5634.669447  17663.575080      0.000001  1  1  1           
PJ07 -25417.478278  33650.764404    -26.836491     -0.030268  1  1  1           
VJ07      5.483140      9.229930      9.706958      0.000000  1  1  1           
*  2023  1  8 14  0  0.00000000
PJ02 -26695.697220  31347.495940  -4367.397933     -0.515529  1  1  1           
VJ02   7815.257619    830.368820 -20158.893520     -0.000000  1  1  1           
PJ03 -24920.112693  23720.194273  29493.152743     -0.078697  1  1  1           
VJ03  -2957.696682  -1872.039412  -1295.700670      0.000000  1  1  1           
PJ04 -33031.908535  25820.072225    587.665462    117.935784  1  1  1           
VJ04   1622.893767   5441.505545  17673.973167      0.000001  1  1  1           
PJ07 -25416.958953  33651.595790    -25.905302     -0.030268  1  1  1           
VJ07      6.052114      9.240514     10.978297      0.000000  1  1  1           
EOF!
